{"type": "FeatureCollection", "features": [ {"type": "Feature", "properties": {"norad_id": 33799, "name": "COSMOS 2251 DEB", "group": "cosmos-2251-debris", "lat": 54.22024191836669, "lon": -134.52258142650135, "alt_km": 609.3167745756245, "timestamp": "2025-12-19T06:59:44.299240+00:00", "meta": {"OBJECT_NAME": "COSMOS 2251 DEB", "OBJECT_ID": "1993-036AQ", "EPOCH": "2025-12-18T14:31:36.155712", "MEAN_MOTION": 14.79685548, "ECCENTRICITY": 0.00228868, "INCLINATION": 74.0325, "RA_OF_ASC_NODE": 70.2372, "ARG_OF_PERICENTER": 138.8452, "MEAN_ANOMALY": 289.8067, "EPHEMERIS_TYPE": 0, "CLASSIFICATION_TYPE": "U", "NORAD_CAT_ID": 33799, "ELEMENT_SET_NO": 999, "REV_AT_EPOCH": 88898, "BSTAR": 0.00085660309, "MEAN_MOTION_DOT": 6.433e-05, "MEAN_MOTION_DDOT": 0}, "tle": {"line1": "1 33799U 93036AQ  25352.60527958  .00006433  00000+0  85660-3 0  9994", "line2": "2 33799  74.0325  70.2372 0022886 138.8452 289.8067 14.79685548888980"}}, "geometry": {"type": "Point", "coordinates": [-134.52258142650135, 54.22024191836669]}}, {"type": "Feature", "properties": {"norad_id": 33805, "name": "COSMOS 2251 DEB", "group": "cosmos-2251-debris", "lat": 69.23502435248471, "lon": 69.82404385310187, "alt_km": 653.7057565984833, "timestamp": "2025-12-19T06:59:44.299251+00:00", "meta": {"OBJECT_NAME": "COSMOS 2251 DEB", "OBJECT_ID": "1993-036AW", "EPOCH": "2025-12-18T22:17:23.428896", "MEAN_MOTION": 14.57869155, "ECCENTRICITY": 0.00600203, "INCLINATION": 74.0311, "RA_OF_ASC_NODE": 299.557, "ARG_OF_PERICENTER": 126.7364, "MEAN_ANOMALY": 233.9334, "EPHEMERIS_TYPE": 0, "CLASSIFICATION_TYPE": "U", "NORAD_CAT_ID": 33805, "ELEMENT_SET_NO": 999, "REV_AT_EPOCH": 89317, "BSTAR": 0.00018117116, "MEAN_MOTION_DOT": 8.2e-06, "MEAN_MOTION_DDOT": 0}, "tle": {"line1": "1 33805U 93036AW  25352.92874339  .00000820  00000+0  18117-3 0  9992", "line2": "2 33805  74.0311 299.5570 0060020 126.7364 233.9334 14.57869155893177"}}, "geometry": {"type": "Point", "coordinates": [69.82404385310187, 69.23502435248471]}}, {"type": "Feature", "properties": {"norad_id": 33811, "name": "COSMOS 2251 DEB", "group": "cosmos-2251-debris", "lat": 10.899385208910958, "lon": -67.73247364990036, "alt_km": 529.8111381021663, "timestamp": "2025-12-19T06:59:44.299261+00:00", "meta": {"OBJECT_NAME": "COSMOS 2251 DEB", "OBJECT_ID": "1993-036BC", "EPOCH": "2025-12-18T23:17:09.032352", "MEAN_MOTION": 15.05444544, "ECCENTRICITY": 0.0031002, "INCLINATION": 73.8377, "RA_OF_ASC_NODE": 289.7323, "ARG_OF_PERICENTER": 9.7122, "MEAN_ANOMALY": 61.4707, "EPHEMERIS_TYPE": 0, "CLASSIFICATION_TYPE": "U", "NORAD_CAT_ID": 33811, "ELEMENT_SET_NO": 999, "REV_AT_EPOCH": 90112, "BSTAR": 0.00082060938, "MEAN_MOTION_DOT": 0.00011889, "MEAN_MOTION_DDOT": 0}, "tle": {"line1": "1 33811U 93036BC  25352.97024343  .00011889  00000+0  82061-3 0  9992", "line2": "2 33811  73.8377 289.7323 0031002   9.7122  61.4707 15.05444544901128"}}, "geometry": {"type": "Point", "coordinates": [-67.73247364990036, 10.899385208910958]}}, {"type": "Feature", "properties": {"norad_id": 33815, "name": "COSMOS 2251 DEB", "group": "cosmos-2251-debris", "lat": 37.21249043213365, "lon": 175.43066937523244, "alt_km": 503.9561404445358, "timestamp": "2025-12-19T06:59:44.299272+00:00", "meta": {"OBJECT_NAME": "COSMOS 2251 DEB", "OBJECT_ID": "1993-036BG", "EPOCH": "2025-12-18T22:02:32.918784", "MEAN_MOTION": 15.19619374, "ECCENTRICITY": 0.00014849, "INCLINATION": 73.9513, "RA_OF_ASC_NODE": 163.589, "ARG_OF_PERICENTER": 298.6947, "MEAN_ANOMALY": 220.3914, "EPHEMERIS_TYPE": 0, "CLASSIFICATION_TYPE": "U", "NORAD_CAT_ID": 33815, "ELEMENT_SET_NO": 999, "REV_AT_EPOCH": 88464, "BSTAR": 0.005145232, "MEAN_MOTION_DOT": 0.00111324, "MEAN_MOTION_DDOT": 0}, "tle": {"line1": "1 33815U 93036BG  25352.91843656  .00111324  00000+0  51452-2 0  9990", "line2": "2 33815  73.9513 163.5890 0001484 298.6947 220.3914 15.19619374884641"}}, "geometry": {"type": "Point", "coordinates": [175.43066937523244, 37.21249043213365]}}, {"type": "Feature", "properties": {"norad_id": 33816, "name": "COSMOS 2251 DEB", "group": "cosmos-2251-debris", "lat": -73.88412405170314, "lon": 3.4164256006512668, "alt_km": 1150.397698287593, "timestamp": "2025-12-19T06:59:44.299282+00:00", "meta": {"OBJECT_NAME": "COSMOS 2251 DEB", "OBJECT_ID": "1993-036BH", "EPOCH": "2025-12-18T17:32:58.866432", "MEAN_MOTION": 13.81790117, "ECCENTRICITY": 0.02643942, "INCLINATION": 73.8953, "RA_OF_ASC_NODE": 95.241, "ARG_OF_PERICENTER": 106.9909, "MEAN_ANOMALY": 256.0368, "EPHEMERIS_TYPE": 0, "CLASSIFICATION_TYPE": "U", "NORAD_CAT_ID": 33816, "ELEMENT_SET_NO": 999, "REV_AT_EPOCH": 84756, "BSTAR": 0.00027922088, "MEAN_MOTION_DOT": 3.68e-06, "MEAN_MOTION_DDOT": 0}, "tle": {"line1": "1 33816U 93036BH  25352.73123688  .00000368  00000+0  27922-3 0  9998", "line2": "2 33816  73.8953  95.2410 0264394 106.9909 256.0368 13.81790117847569"}}, "geometry": {"type": "Point", "coordinates": [3.4164256006512668, -73.88412405170314]}}, {"type": "Feature", "properties": {"norad_id": 33818, "name": "COSMOS 2251 DEB", "group": "cosmos-2251-debris", "lat": 36.61016559073918, "lon": -39.55210787804958, "alt_km": 506.5219020141858, "timestamp": "2025-12-19T06:59:44.299292+00:00", "meta": {"OBJECT_NAME": "COSMOS 2251 DEB", "OBJECT_ID": "1993-036BK", "EPOCH": "2025-12-18T21:33:02.945664", "MEAN_MOTION": 15.12972197, "ECCENTRICITY": 0.00255895, "INCLINATION": 74.0765, "RA_OF_ASC_NODE": 153.5075, "ARG_OF_PERICENTER": 139.6951, "MEAN_ANOMALY": 19.3172, "EPHEMERIS_TYPE": 0, "CLASSIFICATION_TYPE": "U", "NORAD_CAT_ID": 33818, "ELEMENT_SET_NO": 999, "REV_AT_EPOCH": 89955, "BSTAR": 0.0019683565, "MEAN_MOTION_DOT": 0.00035137, "MEAN_MOTION_DDOT": 0}, "tle": {"line1": "1 33818U 93036BK  25352.89795076  .00035137  00000+0  19684-2 0  9990", "line2": "2 33818  74.0765 153.5075 0025589 139.6951  19.3172 15.12972197899556"}}, "geometry": {"type": "Point", "coordinates": [-39.55210787804958, 36.61016559073918]}}, {"type": "Feature", "properties": {"norad_id": 33819, "name": "COSMOS 2251 DEB", "group": "cosmos-2251-debris", "lat": 10.45832632659827, "lon": 14.994428610797254, "alt_km": 808.5003311750852, "timestamp": "2025-12-19T06:59:44.299302+00:00", "meta": {"OBJECT_NAME": "COSMOS 2251 DEB", "OBJECT_ID": "1993-036BL", "EPOCH": "2025-12-18T17:08:11.002272", "MEAN_MOTION": 14.32242853, "ECCENTRICITY": 0.00892897, "INCLINATION": 74.1776, "RA_OF_ASC_NODE": 199.0392, "ARG_OF_PERICENTER": 58.5662, "MEAN_ANOMALY": 13.2267, "EPHEMERIS_TYPE": 0, "CLASSIFICATION_TYPE": "U", "NORAD_CAT_ID": 33819, "ELEMENT_SET_NO": 999, "REV_AT_EPOCH": 87581, "BSTAR": 0.00046830474, "MEAN_MOTION_DOT": 1.295e-05, "MEAN_MOTION_DDOT": 0}, "tle": {"line1": "1 33819U 93036BL  25352.71401623  .00001295  00000+0  46830-3 0  9996", "line2": "2 33819  74.1776 199.0392 0089289  58.5662  13.2267 14.32242853875813"}}, "geometry": {"type": "Point", "coordinates": [14.994428610797254, 10.45832632659827]}}, {"type": "Feature", "properties": {"norad_id": 33821, "name": "COSMOS 2251 DEB", "group": "cosmos-2251-debris", "lat": -60.2188855441005, "lon": -20.989286408362997, "alt_km": 491.6544128411033, "timestamp": "2025-12-19T06:59:44.299312+00:00", "meta": {"OBJECT_NAME": "COSMOS 2251 DEB", "OBJECT_ID": "1993-036BN", "EPOCH": "2025-12-18T18:54:52.410240", "MEAN_MOTION": 15.2567876, "ECCENTRICITY": 0.0050466, "INCLINATION": 74.0297, "RA_OF_ASC_NODE": 130.046, "ARG_OF_PERICENTER": 161.7045, "MEAN_ANOMALY": 198.5987, "EPHEMERIS_TYPE": 0, "CLASSIFICATION_TYPE": "U", "NORAD_CAT_ID": 33821, "ELEMENT_SET_NO": 999, "REV_AT_EPOCH": 75093, "BSTAR": 0.0010297561, "MEAN_MOTION_DOT": 0.00027266, "MEAN_MOTION_DDOT": 0}, "tle": {"line1": "1 33821U 93036BN  25352.78810660  .00027266  00000+0  10298-2 0  9995", "line2": "2 33821  74.0297 130.0460 0050466 161.7045 198.5987 15.25678760750935"}}, "geometry": {"type": "Point", "coordinates": [-20.989286408362997, -60.2188855441005]}}, {"type": "Feature", "properties": {"norad_id": 33822, "name": "COSMOS 2251 DEB", "group": "cosmos-2251-debris", "lat": -73.21886936120436, "lon": 73.42091310171138, "alt_km": 767.7652010033089, "timestamp": "2025-12-19T06:59:44.299323+00:00", "meta": {"OBJECT_NAME": "COSMOS 2251 DEB", "OBJECT_ID": "1993-036BP", "EPOCH": "2025-12-18T23:34:28.363008", "MEAN_MOTION": 14.13099087, "ECCENTRICITY": 0.01530225, "INCLINATION": 74.0677, "RA_OF_ASC_NODE": 182.6616, "ARG_OF_PERICENTER": 227.4613, "MEAN_ANOMALY": 263.7605, "EPHEMERIS_TYPE": 0, "CLASSIFICATION_TYPE": "U", "NORAD_CAT_ID": 33822, "ELEMENT_SET_NO": 999, "REV_AT_EPOCH": 86142, "BSTAR": 0.00099656309, "MEAN_MOTION_DOT": 2.056e-05, "MEAN_MOTION_DDOT": 0}, "tle": {"line1": "1 33822U 93036BP  25352.98227272  .00002056  00000+0  99656-3 0  9995", "line2": "2 33822  74.0677 182.6616 0153022 227.4613 263.7605 14.13099087861421"}}, "geometry": {"type": "Point", "coordinates": [73.42091310171138, -73.21886936120436]}}, {"type": "Feature", "properties": {"norad_id": 33823, "name": "COSMOS 2251 DEB", "group": "cosmos-2251-debris", "lat": 63.024747257368844, "lon": -76.95856914421083, "alt_km": 1022.1712550586353, "timestamp": "2025-12-19T06:59:44.299333+00:00", "meta": {"OBJECT_NAME": "COSMOS 2251 DEB", "OBJECT_ID": "1993-036BQ", "EPOCH": "2025-12-18T20:43:51.119904", "MEAN_MOTION": 13.98965014, "ECCENTRICITY": 0.02093926, "INCLINATION": 73.8094, "RA_OF_ASC_NODE": 138.5973, "ARG_OF_PERICENTER": 262.7737, "MEAN_ANOMALY": 217.0807, "EPHEMERIS_TYPE": 0, "CLASSIFICATION_TYPE": "U", "NORAD_CAT_ID": 33823, "ELEMENT_SET_NO": 999, "REV_AT_EPOCH": 85695, "BSTAR": 0.00061467803, "MEAN_MOTION_DOT": 1.044e-05, "MEAN_MOTION_DDOT": 0}, "tle": {"line1": "1 33823U 93036BQ  25352.86378611  .00001044  00000+0  61468-3 0  9993", "line2": "2 33823  73.8094 138.5973 0209392 262.7737 217.0807 13.98965014856951"}}, "geometry": {"type": "Point", "coordinates": [-76.95856914421083, 63.024747257368844]}}]}